ASTROCAST-0403          
1 55111U 23001DG  26068.82333059  .00013959  00000+0  51317-3 0  9990
2 55111  97.5604 161.3228 0004771 338.0704  22.0330 15.28004949129377
STARLINK-31635          
1 59511U 24073A   26068.05962698 -.00006253  00000+0 -21782-3 0  9994
2 59511  43.0012 321.2045 0001359 281.5119  78.5580 15.27589186106085
